ONEWEB-0196             
1 48218U 21031J   24304.58492852  .00002099  00000+0  56275-2 0  9992
2 48218  87.9029  47.9394 0001865  99.8482 260.2858 13.14493404170110
ONEWEB-0183             
1 48219U 21031K   24304.55953337 -.00000551  00000+0 -15208-2 0  9994
2 48219  87.9030  47.9595 0001481 108.4527 251.6763 13.14502741170201
ONEWEB-0185             
1 48220U 21031L   24304.73794762  .00000075  00000+0  16843-3 0  9997
2 48220  87.9027  47.8954 0001353  97.9699 262.1584 13.14502927170155
ONEWEB-0187             
1 48221U 21031M   24304.55558331 -.00000198  00000+0 -56981-3 0  9993
2 48221  87.9028  47.9658 0001524 101.6033 258.5268 13.14502913170146
ONEWEB-0192             
1 48222U 21031N   24304.53576236  .00000040  00000+0  72307-4 0  9991
2 48222  87.9028  47.9671 0001686  96.4236 263.7085 13.14502465170054
ONEWEB-0219             
1 48223U 21031P   24304.59126754  .00000335  00000+0  86940-3 0  9998
2 48223  87.9028  47.9301 0001402  96.0956 264.0333 13.14502835170260
ONEWEB-0202             
1 48224U 21031Q   24304.72447212  .00000044  00000+0  84297-4 0  9990
2 48224  87.9025  47.9211 0001634  70.7744 289.3563 13.14503712170270
ONEWEB-0204             
1 48225U 21031R   24304.53021136  .00000030  00000+0  45972-4 0  9995
2 48225  87.9027  47.9719 0001622 113.5040 246.6260 13.14501987170135
